start=new Date('2023-01-22T00:00:00.000Z').valueOf();
sats=[{"FILE":"3756893","ECCENTRICITY":"0.00012370","CLASSIFICATION_TYPE":"U","MEAN_ANOMALY":"281.1755","OBJECT_ID":"2022-053F","TLE_LINE2":"2 52661  53.2165 246.9347 0001237  78.9376 281.1755 15.08849877 38436","SEMIMAJOR_AXIS":"6917.850","CENTER_NAME":"EARTH","EPHEMERIS_TYPE":"0","MEAN_ELEMENT_THEORY":"SGP4","REF_FRAME":"TEME","LAUNCH_DATE":"2022-05-18","APOAPSIS":"540.571","OBJECT_TYPE":"PAYLOAD","GP_ID":"223571119","COUNTRY_CODE":"US","REV_AT_EPOCH":"3843","SITE":"AFETR","EPOCH":"2023-01-21T07:32:08.991744","PERIOD":"95.437","ARG_OF_PERICENTER":"78.9376","ELEMENT_SET_NO":"999","NORAD_CAT_ID":"52661","BSTAR":"0.00045312000000","MEAN_MOTION":"15.08849877","OBJECT_NAME":"STARLINK-4042","MEAN_MOTION_DDOT":"0.0000000000000","PERIAPSIS":"538.859","TIME_SYSTEM":"UTC","RA_OF_ASC_NODE":"246.9347","TLE_LINE1":"1 52661U 22053F   23021.31399296  .00006933  00000-0  45312-3 0  9991","DECAY_DATE":null,"MEAN_MOTION_DOT":"0.00006933","RCS_SIZE":"LARGE","INCLINATION":"53.2165"},{"TIME_SYSTEM":"UTC","RA_OF_ASC_NODE":"248.1625","PERIAPSIS":"538.761","MEAN_MOTION_DDOT":"0.0000000000000","OBJECT_NAME":"STARLINK-4044","BSTAR":"0.00267550000000","MEAN_MOTION":"15.08885872","INCLINATION":"53.2117","RCS_SIZE":"LARGE","MEAN_MOTION_DOT":"0.00042604","DECAY_DATE":null,"TLE_LINE1":"1 52662U 22053G   23021.04168676  .00042604  00000-0  26755-2 0  9992","EPOCH":"2023-01-21T01:00:01.736064","SITE":"AFETR","REV_AT_EPOCH":"3839","NORAD_CAT_ID":"52662","ELEMENT_SET_NO":"999","ARG_OF_PERICENTER":"61.5676","PERIOD":"95.435","OBJECT_TYPE":"PAYLOAD","APOAPSIS":"540.450","LAUNCH_DATE":"2022-05-18","REF_FRAME":"TEME","MEAN_ELEMENT_THEORY":"SGP4","CENTER_NAME":"EARTH","EPHEMERIS_TYPE":"0","GP_ID":"223559572","COUNTRY_CODE":"US","ECCENTRICITY":"0.00012210","FILE":"3756386","SEMIMAJOR_AXIS":"6917.740","TLE_LINE2":"2 52662  53.2117 248.1625 0001221  61.5676 298.5439 15.08885872 38392","OBJECT_ID":"2022-053G","MEAN_ANOMALY":"298.5439","CLASSIFICATION_TYPE":"U"},{"EPOCH":"2023-01-21T15:13:11.235648","REV_AT_EPOCH":"3848","SITE":"AFETR","NORAD_CAT_ID":"52663","ELEMENT_SET_NO":"999","ARG_OF_PERICENTER":"96.2522","PERIOD":"95.437","PERIAPSIS":"538.581","RA_OF_ASC_NODE":"245.5041","TIME_SYSTEM":"UTC","OBJECT_NAME":"STARLINK-4037","MEAN_MOTION_DDOT":"0.0000000000000","BSTAR":"0.00032921000000","MEAN_MOTION":"15.08841948","RCS_SIZE":"LARGE","INCLINATION":"53.2128","DECAY_DATE":null,"MEAN_MOTION_DOT":"0.00004956","TLE_LINE1":"1 52663U 22053H   23021.63415782  .00004956  00000-0  32921-3 0  9992","ECCENTRICITY":"0.00016740","FILE":"3757127","SEMIMAJOR_AXIS":"6917.874","MEAN_ANOMALY":"263.8661","OBJECT_ID":"2022-053H","TLE_LINE2":"2 52663  53.2128 245.5041 0001674  96.2522 263.8661 15.08841948 38483","CLASSIFICATION_TYPE":"U","OBJECT_TYPE":"PAYLOAD","LAUNCH_DATE":"2022-05-18","REF_FRAME":"TEME","APOAPSIS":"540.897","CENTER_NAME":"EARTH","EPHEMERIS_TYPE":"0","MEAN_ELEMENT_THEORY":"SGP4","COUNTRY_CODE":"US","GP_ID":"223577118"},{"BSTAR":"0.00023543000000","MEAN_MOTION":"15.08846804","OBJECT_NAME":"STARLINK-4070","MEAN_MOTION_DDOT":"0.0000000000000","PERIAPSIS":"538.852","TIME_SYSTEM":"UTC","RA_OF_ASC_NODE":"245.4761","TLE_LINE1":"1 52664U 22053J   23021.64151281  .00003462  00000-0  23543-3 0  9996","DECAY_DATE":null,"MEAN_MOTION_DOT":"0.00003462","RCS_SIZE":"LARGE","INCLINATION":"53.2147","REV_AT_EPOCH":"3848","SITE":"AFETR","EPOCH":"2023-01-21T15:23:46.706784","PERIOD":"95.437","ARG_OF_PERICENTER":"92.8054","ELEMENT_SET_NO":"999","NORAD_CAT_ID":"52664","CENTER_NAME":"EARTH","EPHEMERIS_TYPE":"0","MEAN_ELEMENT_THEORY":"SGP4","REF_FRAME":"TEME","LAUNCH_DATE":"2022-05-18","APOAPSIS":"540.598","OBJECT_TYPE":"PAYLOAD","COUNTRY_CODE":"US","GP_ID":"223577127","FILE":"3757127","ECCENTRICITY":"0.00012620","CLASSIFICATION_TYPE":"U","OBJECT_ID":"2022-053J","MEAN_ANOMALY":"267.3083","TLE_LINE2":"2 52664  53.2147 245.4761 0001262  92.8054 267.3083 15.08846804 38481","SEMIMAJOR_AXIS":"6917.860"},{"COUNTRY_CODE":"US","GP_ID":"223552403","OBJECT_TYPE":"PAYLOAD","APOAPSIS":"540.620","REF_FRAME":"TEME","LAUNCH_DATE":"2022-05-18","MEAN_ELEMENT_THEORY":"SGP4","CENTER_NAME":"EARTH","EPHEMERIS_TYPE":"0","SEMIMAJOR_AXIS":"6917.896","TLE_LINE2":"2 52665  53.2125 249.1204 0001241  93.8082 266.3052 15.08834883 38366","OBJECT_ID":"2022-053K","MEAN_ANOMALY":"266.3052","CLASSIFICATION_TYPE":"U","ECCENTRICITY":"0.00012410","FILE":"3756051","INCLINATION":"53.2125","RCS_SIZE":"LARGE","MEAN_MOTION_DOT":"-0.00000516","DECAY_DATE":null,"TLE_LINE1":"1 52665U 22053K   23020.82823194 -.00000516  00000-0 -14364-4 0  9996","RA_OF_ASC_NODE":"249.1204","TIME_SYSTEM":"UTC","PERIAPSIS":"538.903","MEAN_MOTION_DDOT":"0.0000000000000","OBJECT_NAME":"STARLINK-4064","BSTAR":"-0.00001436400000","MEAN_MOTION":"15.08834883","NORAD_CAT_ID":"52665","ELEMENT_SET_NO":"999","ARG_OF_PERICENTER":"93.8082","PERIOD":"95.438","EPOCH":"2023-01-20T19:52:39.239616","SITE":"AFETR","REV_AT_EPOCH":"3836"},{"SITE":"AFETR","REV_AT_EPOCH":"3837","EPOCH":"2023-01-20T21:38:38.208768","PERIOD":"95.438","ARG_OF_PERICENTER":"91.0070","ELEMENT_SET_NO":"999","NORAD_CAT_ID":"52666","BSTAR":"0.00010198000000","MEAN_MOTION":"15.08840519","MEAN_MOTION_DDOT":"0.0000000000000","OBJECT_NAME":"STARLINK-4079","RA_OF_ASC_NODE":"248.7883","TIME_SYSTEM":"UTC","PERIAPSIS":"538.761","TLE_LINE1":"1 52666U 22053L   23020.90183112  .00001335  00000-0  10198-3 0  9993","MEAN_MOTION_DOT":"0.00001335","DECAY_DATE":null,"INCLINATION":"53.2155","RCS_SIZE":"LARGE","FILE":"3756387","ECCENTRICITY":"0.00014200","CLASSIFICATION_TYPE":"U","TLE_LINE2":"2 52666  53.2155 248.7883 0001420  91.0070 269.1085 15.08840519 38375","OBJECT_ID":"2022-053L","MEAN_ANOMALY":"269.1085","SEMIMAJOR_AXIS":"6917.879","MEAN_ELEMENT_THEORY":"SGP4","CENTER_NAME":"EARTH","EPHEMERIS_TYPE":"0","APOAPSIS":"540.726","REF_FRAME":"TEME","LAUNCH_DATE":"2022-05-18","OBJECT_TYPE":"PAYLOAD","COUNTRY_CODE":"US","GP_ID":"223559785"},{"TLE_LINE2":"2 52667  53.2130 246.7621 0001393 103.5568 256.5580 15.08840049 38443","OBJECT_ID":"2022-053M","MEAN_ANOMALY":"256.5580","SEMIMAJOR_AXIS":"6917.880","CLASSIFICATION_TYPE":"U","ECCENTRICITY":"0.00013930","FILE":"3756894","COUNTRY_CODE":"US","GP_ID":"223571146","OBJECT_TYPE":"PAYLOAD","MEAN_ELEMENT_THEORY":"SGP4","EPHEMERIS_TYPE":"0","CENTER_NAME":"EARTH","APOAPSIS":"540.709","REF_FRAME":"TEME","LAUNCH_DATE":"2022-05-18","ELEMENT_SET_NO":"999","NORAD_CAT_ID":"52667","PERIOD":"95.438","ARG_OF_PERICENTER":"103.5568","SITE":"AFETR","REV_AT_EPOCH":"3844","EPOCH":"2023-01-21T08:30:26.946720","MEAN_MOTION_DOT":"0.00004745","DECAY_DATE":null,"INCLINATION":"53.2130","RCS_SIZE":"LARGE","TLE_LINE1":"1 52667U 22053M   23021.35447855  .00004745  00000-0  31601-3 0  9991","MEAN_MOTION_DDOT":"0.0000000000000","OBJECT_NAME":"STARLINK-4076","TIME_SYSTEM":"UTC","RA_OF_ASC_NODE":"246.7621","PERIAPSIS":"538.782","BSTAR":"0.00031601000000","MEAN_MOTION":"15.08840049"},{"PERIAPSIS":"538.681","RA_OF_ASC_NODE":"248.2191","TIME_SYSTEM":"UTC","OBJECT_NAME":"STARLINK-4067","MEAN_MOTION_DDOT":"0.0000000000000","MEAN_MOTION":"15.08843147","BSTAR":"0.00052909000000","RCS_SIZE":"LARGE","INCLINATION":"53.2116","DECAY_DATE":null,"MEAN_MOTION_DOT":"0.00008143","TLE_LINE1":"1 52668U 22053N   23021.03063714  .00008143  00000-0  52909-3 0  9995","EPOCH":"2023-01-21T00:44:07.048896","REV_AT_EPOCH":"3839","SITE":"AFETR","NORAD_CAT_ID":"52668","ELEMENT_SET_NO":"999","ARG_OF_PERICENTER":"92.2979","PERIOD":"95.437","OBJECT_TYPE":"PAYLOAD","REF_FRAME":"TEME","LAUNCH_DATE":"2022-05-18","APOAPSIS":"540.791","CENTER_NAME":"EARTH","EPHEMERIS_TYPE":"0","MEAN_ELEMENT_THEORY":"SGP4","COUNTRY_CODE":"US","GP_ID":"223560823","ECCENTRICITY":"0.00015250","FILE":"3756432","SEMIMAJOR_AXIS":"6917.871","MEAN_ANOMALY":"267.8188","OBJECT_ID":"2022-053N","TLE_LINE2":"2 52668  53.2116 248.2191 0001525  92.2979 267.8188 15.08843147 38399","CLASSIFICATION_TYPE":"U"},{"FILE":"3757130","ECCENTRICITY":"0.00012410","CLASSIFICATION_TYPE":"U","SEMIMAJOR_AXIS":"6917.850","MEAN_ANOMALY":"268.6899","OBJECT_ID":"2022-053P","TLE_LINE2":"2 52669  53.2115 244.4273 0001241  91.4235 268.6899 15.08849900 38514","REF_FRAME":"TEME","LAUNCH_DATE":"2022-05-18","APOAPSIS":"540.574","EPHEMERIS_TYPE":"0","CENTER_NAME":"EARTH","MEAN_ELEMENT_THEORY":"SGP4","OBJECT_TYPE":"PAYLOAD","GP_ID":"223577036","COUNTRY_CODE":"US","EPOCH":"2023-01-21T20:57:37.485792","REV_AT_EPOCH":"3851","SITE":"AFETR","ARG_OF_PERICENTER":"91.4235","PERIOD":"95.437","NORAD_CAT_ID":"52669","ELEMENT_SET_NO":"999","BSTAR":"0.00031663000000","MEAN_MOTION":"15.08849900","PERIAPSIS":"538.857","RA_OF_ASC_NODE":"244.4273","TIME_SYSTEM":"UTC","OBJECT_NAME":"STARLINK-3972","MEAN_MOTION_DDOT":"0.0000000000000","TLE_LINE1":"1 52669U 22053P   23021.87335053  .00004756  00000-0  31663-3 0  9996","RCS_SIZE":"LARGE","INCLINATION":"53.2115","DECAY_DATE":null,"MEAN_MOTION_DOT":"0.00004756"},{"FILE":"3756433","ECCENTRICITY":"0.00013240","CLASSIFICATION_TYPE":"U","MEAN_ANOMALY":"279.2811","OBJECT_ID":"2022-053Q","TLE_LINE2":"2 52670  53.2129 248.8151 0001324  80.8331 279.2811 15.08850600 37931","SEMIMAJOR_AXIS":"6917.848","CENTER_NAME":"EARTH","EPHEMERIS_TYPE":"0","MEAN_ELEMENT_THEORY":"SGP4","REF_FRAME":"TEME","LAUNCH_DATE":"2022-05-18","APOAPSIS":"540.629","OBJECT_TYPE":"PAYLOAD","COUNTRY_CODE":"US","GP_ID":"223560842","REV_AT_EPOCH":"3793","SITE":"AFETR","EPOCH":"2023-01-20T21:29:25.244448","PERIOD":"95.437","ARG_OF_PERICENTER":"80.8331","ELEMENT_SET_NO":"999","NORAD_CAT_ID":"52670","BSTAR":"0.00044449000000","MEAN_MOTION":"15.08850600","OBJECT_NAME":"STARLINK-4075","MEAN_MOTION_DDOT":"0.0000000000000","PERIAPSIS":"538.797","RA_OF_ASC_NODE":"248.8151","TIME_SYSTEM":"UTC","TLE_LINE1":"1 52670U 22053Q   23020.89543107  .00006795  00000-0  44449-3 0  9991","DECAY_DATE":null,"MEAN_MOTION_DOT":"0.00006795","RCS_SIZE":"LARGE","INCLINATION":"53.2129"}];
